OBJECT_NAME,OBJECT_ID,EPOCH,MEAN_MOTION,ECCENTRICITY,INCLINATION,RA_OF_ASC_NODE,ARG_OF_PERICENTER,MEAN_ANOMALY,EPHEMERIS_TYPE,CLASSIFICATION_TYPE,NORAD_CAT_ID,ELEMENT_SET_NO,REV_AT_EPOCH,BSTAR,MEAN_MOTION_DOT,MEAN_MOTION_DDOT
ONEWEB-0130,2020-100U,2026-07-22T19:01:23.091168,13.12441797,.00019716,87.8980,343.5751,98.7741,261.3611,0,U,47276,999,26931,-.82325218E-3,-.283E-5,0
ONEWEB-0131,2020-100V,2026-07-22T18:56:30.776640,13.12441474,.00018942,87.8970,343.5905,102.0201,258.1140,0,U,47277,999,26935,-.63792357E-3,-.217E-5,0
ONEWEB-0132,2020-100W,2026-07-22T19:37:58.575648,13.12443888,.00018298,87.8972,343.5876,99.5946,260.5390,0,U,47278,999,26925,-.46648078E-3,-.155E-5,0
ONEWEB-0133,2020-100X,2026-07-22T20:02:09.775104,13.12444797,.00018443,87.8984,343.5644,102.0404,258.0931,0,U,47279,999,26941,.11282642E-2,.419E-5,0
ONEWEB-0134,2020-100Y,2026-07-22T08:19:46.141248,13.12443432,.00020961,87.8984,343.6581,101.0587,259.0778,0,U,47280,999,26932,-.97663165E-3,-.339E-5,0
ONEWEB-0135,2020-100Z,2026-07-22T20:26:45.979584,13.12443188,.00020635,87.8971,343.5761,105.8724,254.2633,0,U,47281,999,26941,.58466973E-3,.223E-5,0
ONEWEB-0136,2020-100AA,2026-07-22T19:03:49.022496,13.12442334,.00021713,87.8979,343.5718,100.9088,259.2285,0,U,47282,999,26933,-.99688501E-3,-.346E-5,0
ONEWEB-0137,2020-100AB,2026-07-22T07:04:08.357088,13.12444548,.00017755,87.8984,343.6830,93.6253,266.5079,0,U,47283,999,26917,.11265674E-2,.418E-5,0
ONEWEB-0138,2020-100AC,2026-07-22T19:20:53.906208,13.12443337,.00020631,87.8982,343.5853,98.7938,261.3425,0,U,47284,999,26932,-.11658471E-2,-.407E-5,0
ONEWEB-0139,2020-100AD,2026-07-22T20:19:40.247904,13.12442091,.00018596,87.8984,343.5648,92.5891,267.5451,0,U,47285,999,26940,.11454602E-2,.425E-5,0
ONEWEB-0140,2020-100AE,2026-07-22T15:34:00.812928,13.12443150,.00018233,87.8983,343.5943,102.7275,257.4057,0,U,47286,999,26934,-.10176618E-2,-.353E-5,0
ONEWEB-0141,2020-100AF,2026-07-22T14:49:54.058656,13.12443397,.00017712,87.8982,343.6053,88.3655,271.7676,0,U,47287,999,26932,.10648312E-2,.396E-5,0
ONEWEB-0142,2020-100AG,2026-07-22T20:02:34.076832,13.12444505,.00020599,87.8975,343.5812,86.2054,273.9310,0,U,47288,999,26934,.10276205E-2,.382E-5,0
ONEWEB-0143,2020-100AH,2026-07-22T16:37:26.979168,13.12442805,.00018209,87.8975,343.6095,96.9965,263.1371,0,U,47289,999,26930,.10086462E-2,.376E-5,0
ONEWEB-0144,2020-100AJ,2026-07-22T19:35:32.469792,13.12444096,.00022079,87.8984,343.5614,95.0094,265.1287,0,U,47290,999,26924,-.45742205E-3,-.152E-5,0
ONEWEB-0145,2020-100AK,2026-07-22T15:14:29.856192,13.12442636,.00019188,87.8973,343.6212,96.1031,264.0316,0,U,47291,999,26941,-.41652717E-3,-.137E-5,0
ONEWEB-0146,2020-100AL,2026-07-22T20:38:57.969024,13.12443073,.00015645,87.8977,343.5701,102.9782,257.1521,0,U,47292,999,26935,.251123E-3,.103E-5,0
ONEWEB-0147,2020-100AM,2026-07-22T19:50:10.460544,13.12444617,.00019278,87.8981,343.5599,101.4311,258.7035,0,U,47293,999,26924,.57757718E-3,.221E-5,0
ONEWEB-0115,2021-025A,2026-07-22T14:21:35.646336,13.13472144,.00018781,87.8987,313.1782,100.7159,259.4182,0,U,48042,999,25824,.86358719E-3,.328E-5,0
ONEWEB-0152,2021-025B,2026-07-22T12:51:19.506816,13.13473552,.00018912,87.8992,313.1897,103.3445,256.7896,0,U,48043,999,25819,.72341892E-3,.277E-5,0
ONEWEB-0153,2021-025C,2026-07-22T17:48:45.047520,13.13469827,.00020074,87.8978,313.1484,98.5609,261.5748,0,U,48044,999,25821,.18190081E-3,.79E-6,0
ONEWEB-0154,2021-025D,2026-07-22T17:43:52.354560,13.13470640,.00020625,87.8984,313.1489,105.0748,255.0610,0,U,48045,999,25817,.1412045E-3,.64E-6,0
ONEWEB-0116,2021-025E,2026-07-22T18:39:56.130336,13.13470146,.00018691,87.8989,313.1386,103.9638,256.1699,0,U,48046,999,25832,-.10628168E-3,-.26E-6,0
ONEWEB-0150,2021-025F,2026-07-22T14:26:25.837152,13.13470428,.00018761,87.8990,313.1711,96.0492,264.0850,0,U,48047,999,25819,.11515229E-2,.433E-5,0
ONEWEB-0107,2021-025G,2026-07-22T18:08:14.487936,13.13472211,.00020751,87.8990,313.1363,96.1599,263.9767,0,U,48048,999,25819,.75617776E-3,.289E-5,0
ONEWEB-0101,2021-025H,2026-07-22T08:06:07.803648,13.13471473,.00020996,87.8978,313.2315,101.5274,258.6091,0,U,48049,999,25811,-.80443357E-3,-.281E-5,0
ONEWEB-0113,2021-025J,2026-07-22T17:33:15.920928,13.13891225,.00018502,87.8981,313.0599,96.5654,263.5686,0,U,48050,999,25827,-.36061743E-3,-.12E-5,0
ONEWEB-0112,2021-025K,2026-07-22T07:17:23.904960,13.13469373,.00022151,87.8990,313.2245,100.1004,260.0375,0,U,48051,999,25820,.60532352E-3,.234E-5,0
ONEWEB-0156,2021-025L,2026-07-22T07:29:33.621216,13.13468900,.00019623,87.8989,313.2325,95.9164,264.2189,0,U,48052,999,25818,-.25896481E-3,-.82E-6,0
ONEWEB-0161,2021-025M,2026-07-22T17:51:10.145088,13.13473596,.00020391,87.8987,313.1473,94.4999,265.6363,0,U,48053,999,25817,.33960048E-3,.137E-5,0
